{"type":"FeatureCollection","features":[{"type":"Feature","geometry":{"type":"Polygon","coordinates":[[[120.98508259400012,14.63997936800007],[120.9537046920001,14.627663064000043],[120.95903865900003,14.584665776000065],[120.97942024000008,14.575287630000043],[120.98751161400004,14.558607406000023],[121.01643006400002,14.57919822200006],[121.02346203800005,14.599584719000067],[120.98988594100001,14.62564046500006],[120.98508259400012,14.63997936800007]]]},"properties":{"city_id":"1380600000","name":"Manila","area_km2":41.975413,"boundary_vintage":2023,"source":"faeldon/philippines-json-maps (MIT)"},"id":1380600000},{"type":"Feature","geometry":{"type":"Polygon","coordinates":[[[121.05966011600003,14.59007071800005],[121.05924493500004,14.601644073000044],[121.02603883000006,14.59479852000004],[121.0513976430001,14.56794117400006],[121.05966011600003,14.59007071800005]]]},"properties":{"city_id":"1380500000","name":"Mandaluyong","area_km2":11.317443,"boundary_vintage":2023,"source":"faeldon/philippines-json-maps (MIT)"},"id":1380500000},{"type":"Feature","geometry":{"type":"Polygon","coordinates":[[[121.10187866500006,14.620657343000058],[121.10670234300007,14.675499389000038],[121.07903023100006,14.617969850000065],[121.10187866500006,14.620657343000058]]]},"properties":{"city_id":"1380700000","name":"Marikina","area_km2":22.936689,"boundary_vintage":2023,"source":"faeldon/philippines-json-maps (MIT)"},"id":1380700000},{"type":"Feature","geometry":{"type":"Polygon","coordinates":[[[121.10187866500006,14.620657343000058],[121.07903023100006,14.617969850000065],[121.05966011600003,14.59007071800005],[121.0513976430001,14.56794117400006],[121.10187866500006,14.620657343000058]]]},"properties":{"city_id":"1381200000","name":"Pasig","area_km2":31.312129,"boundary_vintage":2023,"source":"faeldon/philippines-json-maps (MIT)"},"id":1381200000},{"type":"Feature","geometry":{"type":"Polygon","coordinates":[[[121.10670234300007,14.675499389000038],[121.12478007000006,14.766289029000061],[121.01443080000003,14.719158309000022],[121.02265398600002,14.687140174000033],[120.98988594100001,14.62564046500006],[121.01962265700001,14.60305778500003],[121.05924493500004,14.601644073000044],[121.05966011600003,14.59007071800005],[121.07903023100006,14.617969850000065],[121.10670234300007,14.675499389000038]]]},"properties":{"city_id":"1381300000","name":"Quezon City","area_km2":162.484613,"boundary_vintage":2023,"source":"faeldon/philippines-json-maps (MIT)"},"id":1381300000},{"type":"Feature","geometry":{"type":"Polygon","coordinates":[[[121.05924493500004,14.601644073000044],[121.01962265700001,14.60305778500003],[121.02603883000006,14.59479852000004],[121.05924493500004,14.601644073000044]]]},"properties":{"city_id":"1381400000","name":"San Juan","area_km2":5.78001,"boundary_vintage":2023,"source":"faeldon/philippines-json-maps (MIT)"},"id":1381400000},{"type":"Feature","geometry":{"type":"MultiPolygon","coordinates":[[[[121.01480963500002,14.709835197000068],[121.04083690900006,14.742111187000035],[121.0750391780001,14.74019406700006],[121.09759307400009,14.768762164000071],[121.02796889500009,14.781271736000066],[121.00086528200005,14.753523324000069],[121.01480963500002,14.709835197000068]]],[[[121.02257449100011,14.690437151000024],[120.99614758700011,14.67531247400006],[120.96225962600012,14.645016088000034],[120.96862458700002,14.63559090800004],[120.99127371500005,14.639904883000044],[121.02257449100011,14.690437151000024]]]]},"properties":{"city_id":"1380100000","name":"Caloocan","area_km2":53.249137,"boundary_vintage":2023,"source":"faeldon/philippines-json-maps (MIT)"},"id":1380100000},{"type":"Feature","geometry":{"type":"Polygon","coordinates":[[[120.95312750500011,14.694240067000067],[120.92733208400013,14.702649063000022],[120.96225962600012,14.645016088000034],[120.99614758700011,14.67531247400006],[120.95312750500011,14.694240067000067]]]},"properties":{"city_id":"1380400000","name":"Malabon","area_km2":15.772894,"boundary_vintage":2023,"source":"faeldon/philippines-json-maps (MIT)"},"id":1380400000},{"type":"Feature","geometry":{"type":"Polygon","coordinates":[[[120.92733208400013,14.702649063000022],[120.92536221600005,14.683986922000035],[120.95403416800004,14.636900788000052],[120.96862458700002,14.63559090800004],[120.96225962600012,14.645016088000034],[120.92733208400013,14.702649063000022]]]},"properties":{"city_id":"1380900000","name":"Navotas","area_km2":10.542653,"boundary_vintage":2023,"source":"faeldon/philippines-json-maps (MIT)"},"id":1380900000},{"type":"Feature","geometry":{"type":"Polygon","coordinates":[[[121.00086528200005,14.753523324000069],[120.95955042400011,14.719873626000034],[120.95312750500011,14.694240067000067],[120.99614758700011,14.67531247400006],[121.02257449100011,14.690437151000024],[121.01480963500002,14.709835197000068],[121.00086528200005,14.753523324000069]]]},"properties":{"city_id":"1381600000","name":"Valenzuela","area_km2":46.570063,"boundary_vintage":2023,"source":"faeldon/philippines-json-maps (MIT)"},"id":1381600000},{"type":"Feature","geometry":{"type":"Polygon","coordinates":[[[121.0243382450001,14.436169403000063],[120.99281317200008,14.482735746000062],[120.98077125500004,14.48746457600004],[120.9660033990001,14.465722366000023],[121.0107845030001,14.374852788000055],[121.0126901010001,14.406896132000039],[121.0243382450001,14.436169403000063]]]},"properties":{"city_id":"1380200000","name":"Las Piñas","area_km2":32.753856,"boundary_vintage":2023,"source":"faeldon/philippines-json-maps (MIT)"},"id":1380200000},{"type":"Feature","geometry":{"type":"Polygon","coordinates":[[[121.06431954100005,14.551917179000043],[121.05041966400006,14.568402103000038],[121.01643006400002,14.57919822200006],[120.9988221530001,14.56171635700002],[121.0222366910001,14.530536428000062],[121.06641223300004,14.537754094000032],[121.06431954100005,14.551917179000043]]]},"properties":{"city_id":"1380300000","name":"Makati","area_km2":24.971532,"boundary_vintage":2023,"source":"faeldon/philippines-json-maps (MIT)"},"id":1380300000},{"type":"Feature","geometry":{"type":"Polygon","coordinates":[[[121.05738463300008,14.466723355000058],[121.04668523600003,14.467856441000034],[121.04106696500003,14.443779256000028],[121.0243382450001,14.436169403000063],[121.0126901010001,14.406896132000039],[121.0107845030001,14.374852788000055],[121.05150154700004,14.369658617000026],[121.05188986700011,14.436265553000057],[121.05738463300008,14.466723355000058]]]},"properties":{"city_id":"1380800000","name":"Muntinlupa","area_km2":39.184402,"boundary_vintage":2023,"source":"faeldon/philippines-json-maps (MIT)"},"id":1380800000},{"type":"Feature","geometry":{"type":"Polygon","coordinates":[[[121.03527359300006,14.506378342000062],[121.00111301800005,14.511842245000027],[120.97914223700002,14.529580794000028],[120.97626195400005,14.49011177400007],[120.9780115530001,14.489099628000075],[120.98077125500004,14.48746457600004],[120.99281317200008,14.482735746000062],[121.0243382450001,14.436169403000063],[121.04106696500003,14.443779256000028],[121.04668523600003,14.467856441000034],[121.03527359300006,14.506378342000062]]]},"properties":{"city_id":"1381000000","name":"Parañaque","area_km2":44.843099,"boundary_vintage":2023,"source":"faeldon/philippines-json-maps (MIT)"},"id":1381000000},{"type":"Feature","geometry":{"type":"Polygon","coordinates":[[[120.9988221530001,14.56171635700002],[120.97848884800011,14.555839239000022],[120.97914223700002,14.529580794000028],[121.00111301800005,14.511842245000027],[121.03527359300006,14.506378342000062],[121.0222366910001,14.530536428000062],[120.9988221530001,14.56171635700002]]]},"properties":{"city_id":"1381100000","name":"Pasay","area_km2":17.892175,"boundary_vintage":2023,"source":"faeldon/philippines-json-maps (MIT)"},"id":1381100000},{"type":"Feature","geometry":{"type":"Polygon","coordinates":[[[121.05738463300008,14.466723355000058],[121.06932934800011,14.506686393000052],[121.08271470000011,14.505055543000028],[121.10384570800011,14.530768855000076],[121.07805766000001,14.546894164000035],[121.06641223300004,14.537754094000032],[121.0222366910001,14.530536428000062],[121.03527359300006,14.506378342000062],[121.04668523600003,14.467856441000034],[121.05738463300008,14.466723355000058]]]},"properties":{"city_id":"1381500000","name":"Taguig","area_km2":35.530535,"boundary_vintage":2023,"source":"faeldon/philippines-json-maps (MIT)"},"id":1381500000},{"type":"Feature","geometry":{"type":"Polygon","coordinates":[[[121.07805766000001,14.546894164000035],[121.06431954100005,14.551917179000043],[121.06641223300004,14.537754094000032],[121.07805766000001,14.546894164000035]]]},"properties":{"city_id":"1381701000","name":"Pateros","area_km2":1.609737,"boundary_vintage":2023,"source":"faeldon/philippines-json-maps (MIT)"},"id":1381701000}]}